{
    "CCSDS_OMM_VERS": "3.0",
    "COMMENT": "GENERATED VIA SPACE-TRACK.ORG API",
    "CREATION_DATE": "2025-11-23T21:08:43",
    "ORIGINATOR": "18 SPCS",
    "OBJECT_NAME": "NAVSTAR 83 (USA 440)",
    "OBJECT_ID": "2024-242A",
    "CENTER_NAME": "EARTH",
    "REF_FRAME": "TEME",
    "TIME_SYSTEM": "UTC",
    "MEAN_ELEMENT_THEORY": "SGP4",
    "EPOCH": "2025-11-22T22:23:47.023296",
    "MEAN_MOTION": "2.00567545",
    "ECCENTRICITY": "0.00112344",
    "INCLINATION": "54.9294",
    "RA_OF_ASC_NODE": "342.5435",
    "ARG_OF_PERICENTER": "342.6189",
    "MEAN_ANOMALY": "16.3935",
    "EPHEMERIS_TYPE": "0",
    "CLASSIFICATION_TYPE": "U",
    "NORAD_CAT_ID": "62339",
    "ELEMENT_SET_NO": "999",
    "REV_AT_EPOCH": "711",
    "BSTAR": "0.00000000000000",
    "MEAN_MOTION_DOT": "-0.00000072",
    "MEAN_MOTION_DDOT": "0.0000000000000",
    "SEMIMAJOR_AXIS": "26560.000",
    "PERIOD": "717.963",
    "APOAPSIS": "20211.703",
    "PERIAPSIS": "20152.026",
    "OBJECT_TYPE": "PAYLOAD",
    "RCS_SIZE": "LARGE",
    "COUNTRY_CODE": "US",
    "LAUNCH_DATE": "2024-12-17",
    "SITE": "AFETR",
    "DECAY_DATE": null,
    "FILE": "4896238",
    "GP_ID": "303345451",
    "TLE_LINE0": "0 NAVSTAR 83 (USA 440)",
    "TLE_LINE1": "1 62339U 24242A   25326.93318314 -.00000072  00000-0  00000-0 0  9997",
    "TLE_LINE2": "2 62339  54.9294 342.5435 0011234 342.6189  16.3935  2.00567545  7118"
}